[{"OBJECT_NAME":"NUSTAR","OBJECT_ID":"2012-031A","EPOCH":"2026-03-10T00:00:02.999808","MEAN_MOTION":15.07728841,"ECCENTRICITY":0.00071224,"INCLINATION":6.0266,"RA_OF_ASC_NODE":57.5732,"ARG_OF_PERICENTER":70.6924,"MEAN_ANOMALY":331.0724,"EPHEMERIS_TYPE":0,"CLASSIFICATION_TYPE":"U","NORAD_CAT_ID":38358,"ELEMENT_SET_NO":999,"REV_AT_EPOCH":130,"BSTAR":0.0011080621,"MEAN_MOTION_DOT":0.00018332,"MEAN_MOTION_DDOT":0},{"OBJECT_NAME":"STARLINK-4553","OBJECT_ID":"2022-101BC","EPOCH":"2026-03-09T22:06:32.162976","MEAN_MOTION":15.08844733,"ECCENTRICITY":0.00017236,"INCLINATION":53.2165,"RA_OF_ASC_NODE":52.8317,"ARG_OF_PERICENTER":92.2851,"MEAN_ANOMALY":267.8339,"EPHEMERIS_TYPE":0,"CLASSIFICATION_TYPE":"U","NORAD_CAT_ID":53577,"ELEMENT_SET_NO":999,"REV_AT_EPOCH":19730,"BSTAR":2.7329927e-5,"MEAN_MOTION_DOT":1.47e-6,"MEAN_MOTION_DDOT":0}]
